{"type": "FeatureCollection", "features": [ {"type": "Feature", "properties": {"norad_id": 61182, "name": "GSAT0232 (GALILEO 32)", "group": "gnss", "lat": -22.749069163474108, "lon": -150.88299813257174, "alt_km": 23228.858177302558, "timestamp": "2025-12-27T08:36:18.626008+00:00", "meta": {"OBJECT_NAME": "GSAT0232 (GALILEO 32)", "OBJECT_ID": "2024-167A", "EPOCH": "2025-12-24T18:25:47.943264", "MEAN_MOTION": 1.70473505, "ECCENTRICITY": 0.0001887, "INCLINATION": 55.2374, "RA_OF_ASC_NODE": 226.1008, "ARG_OF_PERICENTER": 202.1814, "MEAN_ANOMALY": 339.8736, "EPHEMERIS_TYPE": 0, "CLASSIFICATION_TYPE": "U", "NORAD_CAT_ID": 61182, "ELEMENT_SET_NO": 999, "REV_AT_EPOCH": 790, "BSTAR": 0, "MEAN_MOTION_DOT": 7.1e-07, "MEAN_MOTION_DDOT": 0}, "tle": {"line1": "1 61182U 24167A   25358.76791601  .00000071  00000+0  00000+0 0  9994", "line2": "2 61182  55.2374 226.1008 0001887 202.1814 339.8736  1.70473505  7904"}}, "geometry": {"type": "Point", "coordinates": [-150.88299813257174, -22.749069163474108]}}, {"type": "Feature", "properties": {"norad_id": 61183, "name": "GSAT0226 (GALILEO 31)", "group": "gnss", "lat": 54.85912719696009, "lon": -53.404841006767725, "alt_km": 23212.526762237852, "timestamp": "2025-12-27T08:36:18.626019+00:00", "meta": {"OBJECT_NAME": "GSAT0226 (GALILEO 31)", "OBJECT_ID": "2024-167B", "EPOCH": "2025-12-25T01:44:41.758656", "MEAN_MOTION": 1.70473602, "ECCENTRICITY": 0.00012523, "INCLINATION": 55.236, "RA_OF_ASC_NODE": 226.0978, "ARG_OF_PERICENTER": 109.4084, "MEAN_ANOMALY": 12.3648, "EPHEMERIS_TYPE": 0, "CLASSIFICATION_TYPE": "U", "NORAD_CAT_ID": 61183, "ELEMENT_SET_NO": 999, "REV_AT_EPOCH": 788, "BSTAR": 0, "MEAN_MOTION_DOT": 7.1e-07, "MEAN_MOTION_DDOT": 0}, "tle": {"line1": "1 61183U 24167B   25359.07270554  .00000071  00000+0  00000+0 0  9999", "line2": "2 61183  55.2360 226.0978 0001252 109.4084  12.3648  1.70473602  7889"}}, "geometry": {"type": "Point", "coordinates": [-53.404841006767725, 54.85912719696009]}}, {"type": "Feature", "properties": {"norad_id": 61186, "name": "BEIDOU-3 M25 (C47)", "group": "gnss", "lat": 3.299184664131809, "lon": 125.8535839188031, "alt_km": 21536.56119762784, "timestamp": "2025-12-27T08:36:18.626033+00:00", "meta": {"OBJECT_NAME": "BEIDOU-3 M25 (C47)", "OBJECT_ID": "2024-168B", "EPOCH": "2025-12-27T04:57:33.161184", "MEAN_MOTION": 1.86229887, "ECCENTRICITY": 0.0005389, "INCLINATION": 54.629, "RA_OF_ASC_NODE": 308.2197, "ARG_OF_PERICENTER": 300.5492, "MEAN_ANOMALY": 133.5608, "EPHEMERIS_TYPE": 0, "CLASSIFICATION_TYPE": "U", "NORAD_CAT_ID": 61186, "ELEMENT_SET_NO": 999, "REV_AT_EPOCH": 858, "BSTAR": 0, "MEAN_MOTION_DOT": -6e-07, "MEAN_MOTION_DDOT": 0}, "tle": {"line1": "1 61186U 24168B   25361.20663381 -.00000060  00000+0  00000+0 0  9994", "line2": "2 61186  54.6290 308.2197 0005389 300.5492 133.5608  1.86229887  8586"}}, "geometry": {"type": "Point", "coordinates": [125.8535839188031, 3.299184664131809]}}, {"type": "Feature", "properties": {"norad_id": 61187, "name": "BEIDOU-3 M27 (C49)", "group": "gnss", "lat": -38.05294966855671, "lon": -85.56986725543496, "alt_km": 21526.635288737772, "timestamp": "2025-12-27T08:36:18.626047+00:00", "meta": {"OBJECT_NAME": "BEIDOU-3 M27 (C49)", "OBJECT_ID": "2024-168C", "EPOCH": "2025-12-26T02:09:38.712960", "MEAN_MOTION": 1.86230112, "ECCENTRICITY": 0.00025351, "INCLINATION": 54.6256, "RA_OF_ASC_NODE": 308.2421, "ARG_OF_PERICENTER": 341.7609, "MEAN_ANOMALY": 198.677, "EPHEMERIS_TYPE": 0, "CLASSIFICATION_TYPE": "U", "NORAD_CAT_ID": 61187, "ELEMENT_SET_NO": 999, "REV_AT_EPOCH": 603, "BSTAR": 0, "MEAN_MOTION_DOT": -5.6e-07, "MEAN_MOTION_DDOT": 0}, "tle": {"line1": "1 61187U 24168C   25360.09003140 -.00000056  00000+0  00000+0 0  9997", "line2": "2 61187  54.6256 308.2421 0002535 341.7609 198.6770  1.86230112  6039"}}, "geometry": {"type": "Point", "coordinates": [-85.56986725543496, -38.05294966855671]}}, {"type": "Feature", "properties": {"norad_id": 62339, "name": "GPS BIII-7  (PRN 01)", "group": "gnss", "lat": 13.360664249084591, "lon": -9.256314236813685, "alt_km": 20150.7320635336, "timestamp": "2025-12-27T08:36:18.626059+00:00", "meta": {"OBJECT_NAME": "GPS BIII-7  (PRN 01)", "OBJECT_ID": "2024-242A", "EPOCH": "2025-12-26T14:04:39.646272", "MEAN_MOTION": 2.00567975, "ECCENTRICITY": 0.0012885, "INCLINATION": 54.9194, "RA_OF_ASC_NODE": 341.1802, "ARG_OF_PERICENTER": 346.4396, "MEAN_ANOMALY": 192.481, "EPHEMERIS_TYPE": 0, "CLASSIFICATION_TYPE": "U", "NORAD_CAT_ID": 62339, "ELEMENT_SET_NO": 999, "REV_AT_EPOCH": 779, "BSTAR": 0, "MEAN_MOTION_DOT": -6e-07, "MEAN_MOTION_DDOT": 0}, "tle": {"line1": "1 62339U 24242A   25360.58656998 -.00000060  00000+0  00000+0 0  9994", "line2": "2 62339  54.9194 341.1802 0012885 346.4396 192.4810  2.00567975  7794"}}, "geometry": {"type": "Point", "coordinates": [-9.256314236813685, 13.360664249084591]}}, {"type": "Feature", "properties": {"norad_id": 62850, "name": "NVS-02 (IRNSS-1K)", "group": "gnss", "lat": -3.0501272934895245, "lon": 150.37001835093145, "alt_km": 27059.94905683844, "timestamp": "2025-12-27T08:36:18.626072+00:00", "meta": {"OBJECT_NAME": "NVS-02 (IRNSS-1K)", "OBJECT_ID": "2025-020A", "EPOCH": "2025-12-26T08:00:18.646560", "MEAN_MOTION": 2.17605261, "ECCENTRICITY": 0.7347253, "INCLINATION": 20.9524, "RA_OF_ASC_NODE": 322.7337, "ARG_OF_PERICENTER": 35.0556, "MEAN_ANOMALY": 356.1261, "EPHEMERIS_TYPE": 0, "CLASSIFICATION_TYPE": "U", "NORAD_CAT_ID": 62850, "ELEMENT_SET_NO": 999, "REV_AT_EPOCH": 721, "BSTAR": 0.00027034114, "MEAN_MOTION_DOT": 2.77e-06, "MEAN_MOTION_DDOT": 0}, "tle": {"line1": "1 62850U 25020A   25360.33354915  .00000277  00000+0  27034-3 0  9993", "line2": "2 62850  20.9524 322.7337 7347253  35.0556 356.1261  2.17605261  7211"}}, "geometry": {"type": "Point", "coordinates": [150.37001835093145, -3.0501272934895245]}}, {"type": "Feature", "properties": {"norad_id": 62876, "name": "QZS-6 (QZSS/PRN 200)", "group": "gnss", "lat": -0.0680286671516651, "lon": -44.299543248850014, "alt_km": 35780.425939325956, "timestamp": "2025-12-27T08:36:18.626086+00:00", "meta": {"OBJECT_NAME": "QZS-6 (QZSS/PRN 200)", "OBJECT_ID": "2025-023A", "EPOCH": "2025-12-26T22:01:29.387136", "MEAN_MOTION": 1.00269714, "ECCENTRICITY": 0.00017716, "INCLINATION": 0.0632, "RA_OF_ASC_NODE": 75.6536, "ARG_OF_PERICENTER": 207.069, "MEAN_ANOMALY": 233.8377, "EPHEMERIS_TYPE": 0, "CLASSIFICATION_TYPE": "U", "NORAD_CAT_ID": 62876, "ELEMENT_SET_NO": 999, "REV_AT_EPOCH": 323, "BSTAR": 0, "MEAN_MOTION_DOT": -2.11e-06, "MEAN_MOTION_DDOT": 0}, "tle": {"line1": "1 62876U 25023A   25360.91770124 -.00000211  00000+0  00000+0 0  9991", "line2": "2 62876   0.0632  75.6536 0001771 207.0690 233.8377  1.00269714  3235"}}, "geometry": {"type": "Point", "coordinates": [-44.299543248850014, -0.0680286671516651]}}, {"type": "Feature", "properties": {"norad_id": 63130, "name": "COSMOS 2584 (704K)", "group": "gnss", "lat": -23.116732731695894, "lon": 67.17732922441898, "alt_km": 19141.124335950735, "timestamp": "2025-12-27T08:36:18.626098+00:00", "meta": {"OBJECT_NAME": "COSMOS 2584 (704K)", "OBJECT_ID": "2025-042A", "EPOCH": "2025-12-24T02:34:25.549824", "MEAN_MOTION": 2.13102981, "ECCENTRICITY": 0.00077651, "INCLINATION": 64.9819, "RA_OF_ASC_NODE": 78.7588, "ARG_OF_PERICENTER": 220.6893, "MEAN_ANOMALY": 139.3012, "EPHEMERIS_TYPE": 0, "CLASSIFICATION_TYPE": "U", "NORAD_CAT_ID": 63130, "ELEMENT_SET_NO": 999, "REV_AT_EPOCH": 631, "BSTAR": 0, "MEAN_MOTION_DOT": 1e-08, "MEAN_MOTION_DDOT": 0}, "tle": {"line1": "1 63130U 25042A   25358.10724016  .00000001  00000+0  00000+0 0  9999", "line2": "2 63130  64.9819  78.7588 0007765 220.6893 139.3012  2.13102981  6316"}}, "geometry": {"type": "Point", "coordinates": [67.17732922441898, -23.116732731695894]}}, {"type": "Feature", "properties": {"norad_id": 64202, "name": "GPS BIII-8  (PRN 21)", "group": "gnss", "lat": -20.458496529299378, "lon": -126.85643130464125, "alt_km": 20189.911887992806, "timestamp": "2025-12-27T08:36:18.626111+00:00", "meta": {"OBJECT_NAME": "GPS BIII-8  (PRN 21)", "OBJECT_ID": "2025-116A", "EPOCH": "2025-12-26T01:49:27.319296", "MEAN_MOTION": 2.00557298, "ECCENTRICITY": 0.00059923, "INCLINATION": 55.1151, "RA_OF_ASC_NODE": 38.103, "ARG_OF_PERICENTER": 311.0999, "MEAN_ANOMALY": 48.1681, "EPHEMERIS_TYPE": 0, "CLASSIFICATION_TYPE": "U", "NORAD_CAT_ID": 64202, "ELEMENT_SET_NO": 999, "REV_AT_EPOCH": 439, "BSTAR": 0, "MEAN_MOTION_DOT": -5.1e-07, "MEAN_MOTION_DDOT": 0}, "tle": {"line1": "1 64202U 25116A   25360.07601064 -.00000051  00000+0  00000+0 0  9994", "line2": "2 64202  55.1151  38.1030 0005992 311.0999  48.1681  2.00557298  4398"}}, "geometry": {"type": "Point", "coordinates": [-126.85643130464125, -20.458496529299378]}}, {"type": "Feature", "properties": {"norad_id": 65590, "name": "COSMOS 2596 (708K)", "group": "gnss", "lat": 64.59766843302658, "lon": 57.36063129562708, "alt_km": 19152.577146028885, "timestamp": "2025-12-27T08:36:18.626125+00:00", "meta": {"OBJECT_NAME": "COSMOS 2596 (708K)", "OBJECT_ID": "2025-206B", "EPOCH": "2025-12-26T12:49:29.791776", "MEAN_MOTION": 2.13100157, "ECCENTRICITY": 0.0014063, "INCLINATION": 64.7367, "RA_OF_ASC_NODE": 320.9961, "ARG_OF_PERICENTER": 307.6587, "MEAN_ANOMALY": 232.6923, "EPHEMERIS_TYPE": 0, "CLASSIFICATION_TYPE": "U", "NORAD_CAT_ID": 65590, "ELEMENT_SET_NO": 999, "REV_AT_EPOCH": 223, "BSTAR": 0, "MEAN_MOTION_DOT": -3.6e-07, "MEAN_MOTION_DDOT": 0}, "tle": {"line1": "1 65590U 25206B   25360.53437259 -.00000036  00000+0  00000+0 0  9992", "line2": "2 65590  64.7367 320.9961 0014063 307.6587 232.6923  2.13100157  2234"}}, "geometry": {"type": "Point", "coordinates": [57.36063129562708, 64.59766843302658]}}]}